{"spaceTrack":{"CCSDS_OMM_VERS":"2.0","COMMENT":"GENERATED VIA SPACE-TRACK.ORG API","CREATION_DATE":"2020-10-13T04:16:08","ORIGINATOR":"18 SPCS","OBJECT_NAME":"STARLINK-30","OBJECT_ID":"2019-029K","CENTER_NAME":"EARTH","REF_FRAME":"TEME","TIME_SYSTEM":"UTC","MEAN_ELEMENT_THEORY":"SGP4","EPOCH":"2020-10-13T02:56:59.566560","MEAN_MOTION":16.43170483,"ECCENTRICITY":0.0003711,"INCLINATION":52.9708,"RA_OF_ASC_NODE":332.0356,"ARG_OF_PERICENTER":120.7278,"MEAN_ANOMALY":242.0157,"EPHEMERIS_TYPE":0,"CLASSIFICATION_TYPE":"U","NORAD_CAT_ID":44244,"ELEMENT_SET_NO":999,"REV_AT_EPOCH":7775,"BSTAR":0.0022139,"MEAN_MOTION_DOT":0.47180237,"MEAN_MOTION_DDOT":1.2426e-05,"SEMIMAJOR_AXIS":6535.519,"PERIOD":87.635,"APOAPSIS":159.809,"PERIAPSIS":154.959,"OBJECT_TYPE":"PAYLOAD","RCS_SIZE":"LARGE","COUNTRY_CODE":"US","LAUNCH_DATE":"2019-05-24","SITE":"AFETR","DECAY_DATE":"2020-10-13","DECAYED":1,"FILE":2850561,"GP_ID":163365918,"TLE_LINE0":"0 STARLINK-30","TLE_LINE1":"1 44244U 19029K   20287.12291165  .47180237  12426-4  22139-2 0  9995","TLE_LINE2":"2 44244  52.9708 332.0356 0003711 120.7278 242.0157 16.43170483 77756"},"version":"v0.9","launch":"5eb87d30ffd86e000604b378","longitude":86,"latitude":null,"height_km":null,"velocity_kms":null,"id":"5eed770f096e59000698560d"}
{"spaceTrack":{"CCSDS_OMM_VERS":"2.0","COMMENT":"GENERATED VIA SPACE-TRACK.ORG API","CREATION_DATE":"2020-09-28T19:26:08","ORIGINATOR":"18 SPCS","OBJECT_NAME":"STARLINK-74","OBJECT_ID":"2019-029BL","CENTER_NAME":"EARTH","REF_FRAME":"TEME","TIME_SYSTEM":"UTC","MEAN_ELEMENT_THEORY":"SGP4","EPOCH":"2020-09-28T18:35:08.710368","MEAN_MOTION":16.29892189,"ECCENTRICITY":0.0002076,"INCLINATION":52.9971,"RA_OF_ASC_NODE":48.1405,"ARG_OF_PERICENTER":323.1313,"MEAN_ANOMALY":37.5805,"EPHEMERIS_TYPE":0,"CLASSIFICATION_TYPE":"U","NORAD_CAT_ID":44293,"ELEMENT_SET_NO":999,"REV_AT_EPOCH":7653,"BSTAR":0.0024534,"MEAN_MOTION_DOT":0.1135935,"MEAN_MOTION_DDOT":1.2115e-05,"SEMIMAJOR_AXIS":6570.967,"PERIOD":88.349,"APOAPSIS":194.196,"PERIAPSIS":191.467,"OBJECT_TYPE":"PAYLOAD","RCS_SIZE":"LARGE","COUNTRY_CODE":"US","LAUNCH_DATE":"2019-05-24","SITE":"AFETR","DECAY_DATE":"2020-09-29","DECAYED":1,"FILE":2837086,"GP_ID":162391575,"TLE_LINE0":"0 STARLINK-74","TLE_LINE1":"1 44293U 19029BL  20272.77440637  .11359350  12115-4  24534-2 0  9995","TLE_LINE2":"2 44293  52.9971  48.1405 0002076 323.1313  37.5805 16.29892189 76534"},"version":"v0.9","launch":"5eb87d30ffd86e000604b378","longitude":48,"latitude":null,"height_km":null,"velocity_kms":null,"id":"5eed770f096e59000698560e"}
{"spaceTrack":{"CCSDS_OMM_VERS":"2.0","COMMENT":"GENERATED VIA SPACE-TRACK.ORG API","CREATION_DATE":"2020-10-13T17:46:09","ORIGINATOR":"18 SPCS","OBJECT_NAME":"STARLINK-29","OBJECT_ID":"2019-029J","CENTER_NAME":"EARTH","REF_FRAME":"TEME","TIME_SYSTEM":"UTC","MEAN_ELEMENT_THEORY":"SGP4","EPOCH":"2020-10-13T17:09:39.946752","MEAN_MOTION":16.50981164,"ECCENTRICITY":0.0008105,"INCLINATION":52.9786,"RA_OF_ASC_NODE":228.8138,"ARG_OF_PERICENTER":330.1078,"MEAN_ANOMALY":31.0927,"EPHEMERIS_TYPE":0,"CLASSIFICATION_TYPE":"U","NORAD_CAT_ID":44243,"ELEMENT_SET_NO":999,"REV_AT_EPOCH":7928,"BSTAR":0.00010982,"MEAN_MOTION_DOT":0.11982673,"MEAN_MOTION_DDOT":1.2791e-05,"SEMIMAJOR_AXIS":6514.89,"PERIOD":87.221,"APOAPSIS":142.035,"PERIAPSIS":131.475,"OBJECT_TYPE":"PAYLOAD","RCS_SIZE":"LARGE","COUNTRY_CODE":"US","LAUNCH_DATE":"2019-05-24","SITE":"AFETR","DECAY_DATE":"2020-10-13","DECAYED":1,"FILE":2851295,"GP_ID":163381397,"TLE_LINE0":"0 STARLINK-29","TLE_LINE1":"1 44243U 19029J   20287.71504568  .11982673  12791-4  10982-3 0  9997","TLE_LINE2":"2 44243  52.9786 228.8138 0008105 330.1078  31.0927 16.50981164 79283"},"version":"v0.9","launch":"5eb87d30ffd86e000604b378","longitude":62,"latitude":null,"height_km":null,"velocity_kms":null,"id":"5eed770f096e59000698560f"}
{"spaceTrack":{"CCSDS_OMM_VERS":"2.0","COMMENT":"GENERATED VIA SPACE-TRACK.ORG API","CREATION_DATE":"2021-01-26T02:30:00","ORIGINATOR":"18 SPCS","OBJECT_NAME":"STARLINK-76","OBJECT_ID":"2019-029BE","CENTER_NAME":"EARTH","REF_FRAME":"TEME","TIME_SYSTEM":"UTC","MEAN_ELEMENT_THEORY":"SGP4","EPOCH":"2021-01-25T20:20:03.823008","MEAN_MOTION":15.45935938,"ECCENTRICITY":0.0002902,"INCLINATION":52.9954,"RA_OF_ASC_NODE":226.8497,"ARG_OF_PERICENTER":112.2258,"MEAN_ANOMALY":247.9055,"EPHEMERIS_TYPE":0,"CLASSIFICATION_TYPE":"U","NORAD_CAT_ID":44287,"ELEMENT_SET_NO":999,"REV_AT_EPOCH":9273,"BSTAR":0.00019222,"MEAN_MOTION_DOT":9.089e-05,"MEAN_MOTION_DDOT":0,"SEMIMAJOR_AXIS":6806.766,"PERIOD":93.147,"APOAPSIS":430.607,"PERIAPSIS":426.656,"OBJECT_TYPE":"PAYLOAD","RCS_SIZE":"LARGE","COUNTRY_CODE":"US","LAUNCH_DATE":"2019-05-24","SITE":"AFETR","DECAY_DATE":null,"DECAYED":0,"FILE":2939303,"GP_ID":170371594,"TLE_LINE0":"0 STARLINK-76","TLE_LINE1":"1 44287U 19029BE  21025.84726647  .00009089  00000-0  19222-3 0  9995","TLE_LINE2":"2 44287  52.9954 226.8497 0002902 112.2258 247.9055 15.45935938 92738"},"version":"v0.9","launch":"5eb87d30ffd86e000604b378","longitude":109,"latitude":25.453949445394215,"height_km":427.95455205172675,"velocity_kms":7.659206017683536,"id":"5eed770f096e590006985610"}
{"spaceTrack":{"CCSDS_OMM_VERS":"2.0","COMMENT":"GENERATED VIA SPACE-TRACK.ORG API","CREATION_DATE":"2020-09-02T18:57:38","ORIGINATOR":"18 SPCS","OBJECT_NAME":"STARLINK-23","OBJECT_ID":"2019-029C","CENTER_NAME":"EARTH","REF_FRAME":"TEME","TIME_SYSTEM":"UTC","MEAN_ELEMENT_THEORY":"SGP4","EPOCH":"2020-09-02T05:50:39.789312","MEAN_MOTION":16.40837491,"ECCENTRICITY":0.0004551,"INCLINATION":52.9945,"RA_OF_ASC_NODE":186.9776,"ARG_OF_PERICENTER":271.9057,"MEAN_ANOMALY":198.4437,"EPHEMERIS_TYPE":0,"CLASSIFICATION_TYPE":"U","NORAD_CAT_ID":44237,"ELEMENT_SET_NO":999,"REV_AT_EPOCH":7120,"BSTAR":0.0015299,"MEAN_MOTION_DOT":0.23336896,"MEAN_MOTION_DDOT":1.2391e-05,"SEMIMAJOR_AXIS":6541.713,"PERIOD":87.76,"APOAPSIS":166.555,"PERIAPSIS":160.6,"OBJECT_TYPE":"PAYLOAD","RCS_SIZE":"LARGE","COUNTRY_CODE":"US","LAUNCH_DATE":"2019-05-24","SITE":"AFETR","DECAY_DATE":"2020-09-02","DECAYED":1,"FILE":2813120,"GP_ID":160599026,"TLE_LINE0":"0 STARLINK-23","TLE_LINE1":"1 44237U 19029C   20246.24351608 +.23336896 +12391-4 +15299-2 0  9992","TLE_LINE2":"2 44237 052.9945 186.9776 0004551 271.9057 198.4437 16.40837491071205"},"version":"v0.9","launch":"5eb87d30ffd86e000604b378","longitude":118,"latitude":null,"height_km":null,"velocity_kms":null,"id":"5eed770f096e590006985611"}
{"spaceTrack":{"CCSDS_OMM_VERS":"2.0","COMMENT":"GENERATED VIA SPACE-TRACK.ORG API","CREATION_DATE":"2020-08-09T19:11:44","ORIGINATOR":"18 SPCS","OBJECT_NAME":"STARLINK-22","OBJECT_ID":"2019-029B","CENTER_NAME":"EARTH","REF_FRAME":"TEME","TIME_SYSTEM":"UTC","MEAN_ELEMENT_THEORY":"SGP4","EPOCH":"2020-08-09T13:16:33.420576","MEAN_MOTION":16.42066597,"ECCENTRICITY":0.0004178,"INCLINATION":52.9807,"RA_OF_ASC_NODE":260.6619,"ARG_OF_PERICENTER":316.6235,"MEAN_ANOMALY":43.5158,"EPHEMERIS_TYPE":0,"CLASSIFICATION_TYPE":"U","NORAD_CAT_ID":44236,"ELEMENT_SET_NO":999,"REV_AT_EPOCH":6921,"BSTAR":0.0017311,"MEAN_MOTION_DOT":0.30875389,"MEAN_MOTION_DDOT":1.2472e-05,"SEMIMAJOR_AXIS":6538.448,"PERIOD":87.694,"APOAPSIS":163.045,"PERIAPSIS":157.581,"OBJECT_TYPE":"PAYLOAD","RCS_SIZE":"LARGE","COUNTRY_CODE":"US","LAUNCH_DATE":"2019-05-24","SITE":"AFETR","DECAY_DATE":"2020-08-09","DECAYED":1,"FILE":2798784,"GP_ID":159069947,"TLE_LINE0":"0 STARLINK-22","TLE_LINE1":"1 44236U 19029B   20222.55316459 +.30875389 +12472-4 +17311-2 0  9994","TLE_LINE2":"2 44236 052.9807 260.6619 0004178 316.6235 043.5158 16.42066597069218"},"version":"v0.9","launch":"5eb87d30ffd86e000604b378","longitude":126,"latitude":null,"height_km":null,"velocity_kms":null,"id":"5eed770f096e590006985612"}
{"spaceTrack":{"CCSDS_OMM_VERS":"2.0","COMMENT":"GENERATED VIA SPACE-TRACK.ORG API","CREATION_DATE":"2021-01-26T13:26:11","ORIGINATOR":"18 SPCS","OBJECT_NAME":"STARLINK-26","OBJECT_ID":"2019-029F","CENTER_NAME":"EARTH","REF_FRAME":"TEME","TIME_SYSTEM":"UTC","MEAN_ELEMENT_THEORY":"SGP4","EPOCH":"2021-01-26T09:35:15.541152","MEAN_MOTION":15.64181113,"ECCENTRICITY":0.0002188,"INCLINATION":53.0012,"RA_OF_ASC_NODE":172.2764,"ARG_OF_PERICENTER":259.239,"MEAN_ANOMALY":100.8377,"EPHEMERIS_TYPE":0,"CLASSIFICATION_TYPE":"U","NORAD_CAT_ID":44240,"ELEMENT_SET_NO":999,"REV_AT_EPOCH":9433,"BSTAR":0.0017838,"MEAN_MOTION_DOT":0.00176005,"MEAN_MOTION_DDOT":0,"SEMIMAJOR_AXIS":6753.732,"PERIOD":92.061,"APOAPSIS":377.075,"PERIAPSIS":374.119,"OBJECT_TYPE":"PAYLOAD","RCS_SIZE":"LARGE","COUNTRY_CODE":"US","LAUNCH_DATE":"2019-05-24","SITE":"AFETR","DECAY_DATE":null,"DECAYED":0,"FILE":2939794,"GP_ID":170383495,"TLE_LINE0":"0 STARLINK-26","TLE_LINE1":"1 44240U 19029F   21026.39948543  .00176005  00000-0  17838-2 0  9999","TLE_LINE2":"2 44240  53.0012 172.2764 0002188 259.2390 100.8377 15.64181113 94331"},"version":"v0.9","launch":"5eb87d30ffd86e000604b378","longitude":14,"latitude":-24.712922471107795,"height_km":381.9480433609697,"velocity_kms":7.681040102223976,"id":"5eed770f096e590006985613"}
